#aV2013 12 27  0  0  0.00000000     288 DD+AD WGS84 FIT  NGA
## 1772 432000.00000000   300.00000000 56653 0.0000000000000
+   31     1  2  3  4  5  6  7  8  9 10 11 12 13 14 15 16 17
+         18 19 20 21 22 23 24 25 26 27 28 29 31 32  0  0  0
+          0  0  0  0  0  0  0  0  0  0  0  0  0  0  0  0  0
+          0  0  0  0  0  0  0  0  0  0  0  0  0  0  0  0  0
+          0  0  0  0  0  0  0  0  0  0  0  0  0  0  0  0  0
++         2  2  2  2  2  2  2  2  2  2  2  2  2  2  2  2  2
++         2  2  2  2  2  2  2  2  2  2  2  2  2  2  0  0  0
++         0  0  0  0  0  0  0  0  0  0  0  0  0  0  0  0  0
++         0  0  0  0  0  0  0  0  0  0  0  0  0  0  0  0  0
++         0  0  0  0  0  0  0  0  0  0  0  0  0  0  0  0  0
%c cc cc ccc ccc cccc cccc cccc cccc ccccc ccccc ccccc ccccc
%c cc cc ccc ccc cccc cccc cccc cccc ccccc ccccc ccccc ccccc
%f  0.0000000  0.000000000  0.00000000000  0.000000000000000
%f  0.0000000  0.000000000  0.00000000000  0.000000000000000
%i    0    0    0    0      0      0      0      0         0
%i    0    0    0    0      0      0      0      0         0
/*      NGA, ST. LOUIS,MO.                                  
/*   EPHEMERIS COMPUTED FROM  1 DAYS OF DATA                
/*   EPOCHA SMOOTHER                                       
/* CCCCCCCCCCCCCCCCCCCCCCCCCCCCCCCCCCCCCCCCCCCCCCCCCCCCCCCCC
*  2013 12 27 17 50  0.00000000
P  1  -6565.204381  18772.790180 -17583.340049     96.415058                    
V  1 -19737.966692  10529.821377  18760.752440      0.027168                    
P  2  22039.488134 -14290.089384   -664.964547    469.331198                    
V  2   1263.930242   3927.861008 -31574.898807      0.022053                    
P  3  -9437.498489  17320.031389  17172.810935    304.694273                    
V  3  -6744.308195 -22112.780851  18207.185346      0.048662                    
P  4  22732.574416  -2546.753692 -14010.924146      4.542027                    
V  4 -13112.684554  11454.823554 -23637.207490      0.002602                    
P  5  16693.819320  -7123.695094  19403.645608   -394.208207                    
V  5  21392.396738  12457.328791 -13644.483853      0.011039                    
P  6 -13964.547348   9230.554401  20591.391429    211.118234                    
V  6  -4130.799675 -25878.218580   9213.865344      0.160320                    
P  7   8941.729692  12038.562002  21999.032507    296.210075                    
V  7 -23662.636596  14432.224411   1413.289260      0.041865                    
P  8  18772.640756   4303.018770  18702.599063     10.829957                    
V  8 -20581.011707  10605.390107  17774.148290      0.002773                    
P  9  18924.318809   2153.059225  18048.010785    293.631665                    
V  9 -19437.828425  13957.171452  18046.128165      0.027065                    
P 10  24680.246138   8285.116602   5971.219750   -107.628963                    
V 10   5590.960884   6358.641296 -29843.513811     -0.015271                    
P 11  -9496.364129  23118.126677  -9135.826177   -450.437919                    
V 11 -10655.307956   5697.073252  27142.630656     -0.032632                    
P 12   -909.368809 -16424.087999 -20950.411059    176.585785                    
V 12  23248.010516  12456.745644 -10593.917471      0.023380                    
P 13   5606.879137  23678.478018  10339.950148     45.803784                    
V 13  -2857.844672  13207.272617 -28467.770600     -0.038001                    
P 14 -13843.832573  -8975.925099 -20630.024937    206.518720                    
V 14   1465.190106 -26591.363621  10340.639613     -0.011743                    
P 15   4628.368857 -24389.748773   8991.147110   -154.469943                    
V 15   4356.199454  11285.276936  28521.397971     -0.019988                    
P 16 -16525.243755   5679.270583  20081.190443   -237.450449                    
V 16 -21543.092256 -13448.902520 -13570.196621      0.013045                    
P 17  14201.547793   8601.113025 -20547.106759    -53.889615                    
V 17   -632.468590  26559.347316  10323.983794     -0.033920                    
P 18 -18584.514330 -17142.898253   9095.817006    292.776933                    
V 18  11177.563156   2125.755029  27838.447798      0.021110                    
P 19  -7580.797905  23373.633400   9387.104134   -428.247280                    
V 19  -2234.245705 -12338.614554  28968.953901     -0.025627                    
P 20   4503.126983  17877.253544 -19334.352299    148.060354                    
V 20 -22801.561820  -8410.243118 -13138.984324      0.031152                    
P 21 -11852.245657 -11373.465684  21520.405771   -334.994563                    
V 21  21693.841763 -14346.262589   3999.553145     -0.017245                    
P 22 -24321.267068 -10614.121753  -2171.351528    203.294630                    
V 22   -913.127464  -4783.811088  30656.155704      0.021174                    
P 23    444.645356  26321.853424   -728.972439     17.825079                    
V 23  -3432.932441   -924.819472 -31844.195356     -0.032856                    
P 24  10980.409571 -19357.450814 -14444.529235    -20.527624                    
V 24  16581.387334  -8216.511517  23698.482697     -0.006043                    
P 25 -13984.468370 -17816.849457 -14019.271873      5.285540                    
V 25  16495.701637   6475.974946 -24671.730502      0.025555                    
P 26  12399.129052 -15017.982594  17263.077422    210.452385                    
V 26    627.393251  23354.963146  19464.318060     -0.105091                    
P 27 -12695.405728  13295.499631  19155.896546    -10.918215                    
V 27  -2554.803258 -24242.137108  15151.678635     -0.024723                    
P 28  22635.759444  14055.910347    735.426225    319.944292                    
V 28  -1138.731167   1534.500837  32171.438761      0.029272                    
P 29  -4605.545853 -25287.687091   6818.817562    498.649967                    
V 29   2443.943666  -8578.055345 -30308.307269      0.030599                    
P 31 -23495.988082   5255.183030 -11381.205570    331.662571                    
V 31  11582.038025  -9015.683903 -27368.030766      0.004313                    
P 32  -7734.093581  13389.081612 -21518.985129   -510.448665                    
V 32 -23221.720619 -14840.901929   -345.641752      0.054548                    
EOF
